STARLINK-31228          
1 58842U 24017S   24036.66667824 -.01708862  00000+0 -15585-1 0  9999
2 58842  53.1591 157.8880 0000952  59.2853 234.9325 15.70345204  3134
STARLINK-31280          
1 58843U 24017T   24037.08334491 -.01718791  00000+0 -16743-1 0  9997
2 58843  53.1594 155.8308 0001011  65.8477  64.9449 15.68791722  3206
STARLINK-31269          
1 58844U 24017U   24038.58334491 -.01750501  00000+0 -21027-1 0  9990
2 58844  53.1593 148.4705 0001094  69.0315 245.4785 15.63174878  3439
STARLINK-31264          
1 58845U 24017V   24038.58334491 -.01750616  00000+0 -21027-1 0  9998
2 58845  53.1593 148.4734 0001159  58.2666 255.3742 15.63176131  3430
STARLINK-31273          
1 58846U 24017W   24037.75001157 -.01667066  00000+0 -17941-1 0  9993
2 58846  53.1589 152.5534 0001177  42.8442 253.0690 15.66267230  3285
STARLINK-31262          
1 58847U 24017X   24038.58334491 -.01751035  00000+0 -21036-1 0  9996
2 58847  53.1594 148.4685 0000930  78.0222 237.3578 15.63174157  3435
AAC-AIS-SAT3            
1 58848U 23174DH  24038.55432073  .00007909  00000+0  54328-3 0  9995
2 58848  97.4508 114.0764 0014405  99.5790 260.7066 15.06136559 13860
2024-018A               
1 58849U 24018A   24038.58470557  .00002028  00000+0  25152-3 0  9996
2 58849  58.6914 351.1463 0457685 174.4408 186.1956 14.32760084  1524
2024-018B               
1 58850U 24018B   24038.57965198  .00003143  00000+0  37290-3 0  9992
2 58850  58.6999 351.1308 0454578 174.9115 185.6771 14.33453946  1510
2024-018C               
1 58851U 24018C   24038.57543771  .00001454  00000+0  18721-3 0  9993
2 58851  58.6883 351.1065 0451906 174.3580 186.2792 14.34008650  1525
2024-018D               
1 58852U 24018D   24038.50660565  .00006004  00000+0  68424-3 0  9999
2 58852  58.6781 351.3435 0452569 173.8427 186.8432 14.33934303  1514
STARLINK-31238          
1 58853U 24019A   24038.58334491 -.01054735  00000+0 -68106-2 0  9998
2 58853  43.0044 223.7213 0001688 258.6458  72.5254 15.77577530  2405
STARLINK-31158          
1 58854U 24019B   24038.58334491 -.01082592  00000+0 -70521-2 0  9995
2 58854  43.0042 223.7141 0001526 258.3758  75.6061 15.77448440  2536
STARLINK-31237          
1 58855U 24019C   24038.58334491 -.01069102  00000+0 -69352-2 0  9998
2 58855  43.0039 223.7178 0001598 260.5306  72.0843 15.77509355  2617
STARLINK-31244          
1 58856U 24019D   24038.58334491 -.01091654  00000+0 -71339-2 0  9994
2 58856  43.0043 223.7105 0001716 260.2385  75.0190 15.77396482  2566
STARLINK-31216          
1 58857U 24019E   24038.58334491 -.01207866  00000+0 -62686-2 0  9994
2 58857  43.0036 223.4028 0001559 272.8456 184.8756 15.82632226  2587
STARLINK-31226          
1 58858U 24019F   24038.58334491 -.01117177  00000+0 -73652-2 0  9995
2 58858  43.0043 223.7035 0001562 259.3883  78.5942 15.77261816  2735
STARLINK-31197          
1 58859U 24019G   24038.58334491 -.01129938  00000+0 -74791-2 0  9999
2 58859  43.0041 223.7003 0001526 258.9489  80.3164 15.77203232  2731
STARLINK-31213          
1 58860U 24019H   24038.58334491 -.01277158  00000+0 -76899-2 0  9990
2 58860  43.0043 223.6452 0001505 260.7382 100.5721 15.79620321  2730
STARLINK-31199          
1 58861U 24019J   24038.58334491 -.01154265  00000+0 -77047-2 0  9990
2 58861  43.0041 223.6937 0001693 260.0472  81.8180 15.77071185  2734
STARLINK-31200          
1 58862U 24019K   24038.58334491 -.01167433  00000+0 -78270-2 0  9991
2 58862  43.0043 223.6905 0001713 261.1333  82.0181 15.77003884  2738
STARLINK-31149          
1 58863U 24019L   24038.58334491 -.01178870  00000+0 -79362-2 0  9992
2 58863  43.0042 223.6871 0001687 259.8933  84.5061 15.76939700  2727
STARLINK-31242          
1 58864U 24019M   24038.58334491 -.01192058  00000+0 -80645-2 0  9993
2 58864  43.0041 223.6840 0001542 257.8715  87.8264 15.76863101  2732
STARLINK-31223          
1 58865U 24019N   24038.58334491 -.01206474  00000+0 -81986-2 0  9991
2 58865  43.0036 223.6811 0001573 259.9460  86.9838 15.76797371  2584
STARLINK-31219          
1 58866U 24019P   24038.58334491 -.01219004  00000+0 -83215-2 0  9992
2 58866  43.0037 223.6776 0001564 258.9804  89.1883 15.76725994  2483
STARLINK-31198          
1 58867U 24019Q   24038.58334491 -.01210132  00000+0 -68971-2 0  9998
2 58867  43.0039 223.4927 0001755 270.9359 150.8671 15.80647040  2484
STARLINK-31196          
1 58868U 24019R   24038.58334491 -.01243244  00000+0 -85615-2 0  9993
2 58868  43.0034 223.6710 0001777 265.5529  85.0315 15.76586671  2486
STARLINK-31203          
1 58869U 24019S   24038.58334491 -.01279978  00000+0 -87057-2 0  9999
2 58869  43.0036 223.6680 0001610 259.6855  92.1608 15.76499184  2731
STARLINK-31201          
1 58870U 24019T   24038.58334491 -.01295734  00000+0 -88561-2 0  9990
2 58870  43.0034 223.6651 0001505 259.2723  93.7799 15.76421995  2533
STARLINK-31214          
1 58871U 24019U   24038.58334491 -.01307498  00000+0 -89760-2 0  9994
2 58871  43.0037 223.6623 0001543 258.6134  95.6160 15.76346290  2534
